[{"OBJECT_NAME":"OBJECT C","OBJECT_ID":"2023-091C","EPOCH":"2026-03-09T22:19:51.473568","MEAN_MOTION":15.24718365,"ECCENTRICITY":0.0013257,"INCLINATION":97.5143,"RA_OF_ASC_NODE":130.8747,"ARG_OF_PERICENTER":96.9232,"MEAN_ANOMALY":263.3514,"EPHEMERIS_TYPE":0,"CLASSIFICATION_TYPE":"U","NORAD_CAT_ID":57168,"ELEMENT_SET_NO":999,"REV_AT_EPOCH":14912,"BSTAR":0.00051490472,"MEAN_MOTION_DOT":0.00012709,"MEAN_MOTION_DDOT":0},{"OBJECT_NAME":"STARLINK-30345","OBJECT_ID":"2023-129D","EPOCH":"2026-03-09T19:35:58.089984","MEAN_MOTION":15.26736368,"ECCENTRICITY":7.154e-5,"INCLINATION":42.997,"RA_OF_ASC_NODE":117.0531,"ARG_OF_PERICENTER":35.7791,"MEAN_ANOMALY":324.3109,"EPHEMERIS_TYPE":0,"CLASSIFICATION_TYPE":"U","NORAD_CAT_ID":57701,"ELEMENT_SET_NO":999,"REV_AT_EPOCH":14056,"BSTAR":6.1280296e-5,"MEAN_MOTION_DOT":1.384e-5,"MEAN_MOTION_DDOT":0}]
